[{"OBJECT_NAME":"STARLINK-5585","OBJECT_ID":"2023-099F","EPOCH":"2026-03-09T13:19:37.533792","MEAN_MOTION":15.02536381,"ECCENTRICITY":0.00010454,"INCLINATION":43.0018,"RA_OF_ASC_NODE":249.9374,"ARG_OF_PERICENTER":248.5296,"MEAN_ANOMALY":111.5435,"EPHEMERIS_TYPE":0,"CLASSIFICATION_TYPE":"U","NORAD_CAT_ID":57333,"ELEMENT_SET_NO":999,"REV_AT_EPOCH":14609,"BSTAR":6.809423e-6,"MEAN_MOTION_DOT":-1.12e-6,"MEAN_MOTION_DDOT":0},{"OBJECT_NAME":"CZ-2D DEB","OBJECT_ID":"2017-060B","EPOCH":"2026-03-09T14:15:36.855648","MEAN_MOTION":14.99543568,"ECCENTRICITY":0.002893,"INCLINATION":97.5408,"RA_OF_ASC_NODE":90.0945,"ARG_OF_PERICENTER":284.1616,"MEAN_ANOMALY":75.6394,"EPHEMERIS_TYPE":0,"CLASSIFICATION_TYPE":"U","NORAD_CAT_ID":44609,"ELEMENT_SET_NO":999,"REV_AT_EPOCH":45025,"BSTAR":0.00057261,"MEAN_MOTION_DOT":7.042e-5,"MEAN_MOTION_DDOT":0}]
